QIANFAN-49              
1 62250U 24232P   25259.51815923  .00000091  00000+0  12229-3 0  9993
2 62250  88.9972  50.0272 0016076  88.3491 271.9501 13.50960043 56062
QIANFAN-50              
1 62251U 24232Q   25259.54285325  .00000075  00000+0  96772-4 0  9992
2 62251  88.9977  50.0280 0017737  89.3960 270.9224 13.50966583 56093
QIANFAN-51              
1 62252U 24232R   25259.52637081  .00000089  00000+0  11916-3 0  9992
2 62252  88.9971  50.0289 0015244  92.8008 267.4888 13.50969045 56082
QIANFAN-52              
1 62253U 24232S   25259.55519037  .00000089  00000+0  11916-3 0  9996
2 62253  88.9967  49.9029 0017220  85.7626 274.5492 13.50971542 56175
QIANFAN-53              
1 62254U 24232T   25259.53461189  .00000078  00000+0  10170-3 0  9998
2 62254  88.9975  50.0030 0016107  86.8712 273.4282 13.50967443 56137
QIANFAN-54              
1 62255U 24232U   25259.50165680  .00000079  00000+0  10428-3 0  9990
2 62255  88.9966  49.6923 0003850 112.6515 247.5043 13.50969497 87630
QIANFAN-55              
1 62785U 25016A   25259.60159854  .00000050  00000+0  58549-4 0  9992
2 62785  88.9772 112.2130 0015606 238.2066 121.7565 13.50964579 35426
QIANFAN-56              
1 62786U 25016B   25259.54416025  .00000061  00000+0  76450-4 0  9995
2 62786  88.9745 112.0791 0014234 240.8983 119.0744 13.50963619 35468
